     3.04           N: GNSS NAV DATA    M: MIXED            RINEX VERSION / TYPE
ssrcrin-15.6.1x                         20250101 111500 UTC PGM / RUN BY / DATE 
    18                                                      LEAP SECONDS        
                                                            END OF HEADER       
E16 2025 01 01 11 10 00-1.279910793528E-05-1.989519660128E-12 0.000000000000E+00
     1.180000000000E+02-2.668750000000E+01 3.337639026062E-09 1.404257375699E-01
    -1.460313796997E-06 2.388503635302E-04 6.671994924545E-06 5.440611221313E+03
     2.994000000000E+05 1.303851604462E-08 2.409527652807E+00 5.029141902924E-08
     9.661451036159E-01 2.012812500000E+02 2.253159320741E+00-5.480942588973E-09
    -7.486026108750E-10 5.170000000000E+02 2.347000000000E+03
     3.120000000000E+00 3.900000000000E+02-5.122274160385E-09-3.259629011154E-09
     3.000650000000E+05
E36 2025 01 01 10 50 00-3.329624887556E-04-5.329070518201E-12 0.000000000000E+00
     1.160000000000E+02 1.683437500000E+02 2.571535686212E-09 7.769109534597E-01
     7.934868335724E-06 3.703550901264E-04-1.993030309677E-07 5.440608274460E+03
     2.982000000000E+05 9.126961231232E-08-1.775833924531E+00-2.421438694000E-08
     9.996810786267E-01 3.629687500000E+02-1.006724697096E+00-5.675236396376E-09
     3.796586714504E-10 5.170000000000E+02 2.347000000000E+03
     3.120000000000E+00 0.000000000000E+00 2.095475792885E-09 3.725290298462E-09
     3.000660000000E+05
E07 2025 01 01 11 10 00-1.612663036212E-04-2.003730514843E-12 0.000000000000E+00
     1.180000000000E+02-1.825000000000E+02 2.759400654399E-09 2.059120362445E+00
    -8.327886462212E-06 1.233519287780E-04 1.189112663269E-05 5.440624608994E+03
     2.994000000000E+05-1.117587089539E-08 3.133124218743E-01 3.725290298462E-08
     9.636259542946E-01 8.668750000000E+01-3.003987305043E-01-5.227003439960E-09
     3.403713206889E-10 2.580000000000E+02 2.347000000000E+03
     3.120000000000E+00 0.000000000000E+00 3.026798367500E-09 0.000000000000E+00
     3.001400000000E+05
E30 2025 01 01 11 10 00-1.089857774787E-03-4.001776687801E-11 0.000000000000E+00
     1.180000000000E+02-1.656250000000E+01 3.474073280525E-09-5.425602766133E-01
    -7.580965757370E-07 5.760261556134E-04 6.325542926788E-06 5.440610280991E+03
     2.994000000000E+05 2.235174179077E-08 2.416237667437E+00 2.048909664154E-08
     9.620433124627E-01 2.028125000000E+02 9.713457583697E-01-5.520944255203E-09
    -6.575273886550E-10 2.580000000000E+02 2.347000000000E+03
     3.120000000000E+00 0.000000000000E+00-9.313225746155E-10 0.000000000000E+00
     3.001400000000E+05
E03 2025 01 01 11 10 00-1.637298846617E-04-2.572164703452E-12 0.000000000000E+00
     1.180000000000E+02-1.654375000000E+02 2.784758853527E-09 2.389051672677E+00
    -7.715076208115E-06 2.425198908895E-04 1.309998333454E-05 5.440617000580E+03
     2.994000000000E+05-4.470348358154E-08 3.132430649281E-01-1.676380634308E-08
     9.635852998012E-01 6.031250000000E+01 9.332574002710E-01-5.230217859567E-09
     3.450143712334E-10 2.580000000000E+02 2.347000000000E+03
     3.120000000000E+00 0.000000000000E+00 6.984919309616E-10 0.000000000000E+00
     3.001400000000E+05
E16 2025 01 01 11 10 00-1.280137803406E-05-1.989519660128E-12 0.000000000000E+00
     1.180000000000E+02-2.668750000000E+01 3.337639026062E-09 1.404257375699E-01
    -1.460313796997E-06 2.388503635302E-04 6.671994924545E-06 5.440611221313E+03
     2.994000000000E+05 1.303851604462E-08 2.409527652807E+00 5.029141902924E-08
     9.661451036159E-01 2.012812500000E+02 2.253159320741E+00-5.480942588973E-09
    -7.486026108750E-10 2.580000000000E+02 2.347000000000E+03
     3.120000000000E+00 4.800000000000E+01-5.122274160385E-09 0.000000000000E+00
     3.001400000000E+05
E12 2025 01 01 11 10 00-1.366512966342E-03-1.716671249596E-11 0.000000000000E+00
     1.180000000000E+02 1.557187500000E+02 2.578321683162E-09 1.878433668119E+00
     7.202848792076E-06 3.809229237959E-04 5.103647708893E-07 5.440617858887E+03
     2.994000000000E+05 9.313225746155E-09-1.775163897810E+00 3.725290298462E-08
     9.965919354601E-01 3.434687500000E+02-4.147691378280E-01-5.678450815984E-09
     3.250135381184E-10 2.580000000000E+02 2.347000000000E+03
     3.120000000000E+00 0.000000000000E+00-1.373700797558E-08 0.000000000000E+00
     3.001400000000E+05
S21 2025 01 01 11 22 24 0.000000000000E+00 0.000000000000E+00 3.001520000000E+05
     4.200468400000E+04 0.000000000000E+00 0.000000000000E+00 6.300000000000E+01
    -3.674932960000E+03 0.000000000000E+00 0.000000000000E+00 3.276700000000E+04
     0.000000000000E+00 0.000000000000E+00 0.000000000000E+00 9.800000000000E+01
S44 2025 01 01 11 22 40 8.423812687397E-07 0.000000000000E+00 3.001520000000E+05
     7.247778720000E+03 5.812500000000E-04 3.250000000000E-07 6.300000000000E+01
     4.151313400000E+04 4.508125000000E-03-5.000000000000E-08 3.276700000000E+04
    -1.343452000000E+03 1.005800000000E-01 3.562500000000E-06 6.000000000000E+01
S23 2025 01 01 11 22 56 0.000000000000E+00 0.000000000000E+00 3.001820000000E+05
     3.866796400000E+04 0.000000000000E+00 0.000000000000E+00 6.300000000000E+01
     1.681330800000E+04 0.000000000000E+00 0.000000000000E+00 3.276700000000E+04
     0.000000000000E+00 0.000000000000E+00 0.000000000000E+00 5.600000000000E+01
S36 2025 01 01 11 23 12 0.000000000000E+00 0.000000000000E+00 3.001930000000E+05
     4.200368800000E+04 0.000000000000E+00 0.000000000000E+00 6.300000000000E+01
     3.674846960000E+03 0.000000000000E+00 0.000000000000E+00 3.276700000000E+04
     0.000000000000E+00 0.000000000000E+00 0.000000000000E+00 1.640000000000E+02
S27 2025 01 01 11 23 44 0.000000000000E+00 0.000000000000E+00 3.001980000000E+05
     2.407802608000E+04-1.565625000000E-03 3.500000000000E-07 6.300000000000E+01
     3.458439648000E+04 3.638750000000E-03-5.000000000000E-08 3.276700000000E+04
    -4.886796000000E+02-2.030800000000E-02 2.625000000000E-06 1.580000000000E+02
S28 2025 01 01 11 23 44 0.000000000000E+00 0.000000000000E+00 3.001980000000E+05
     5.069023360000E+03 2.525000000000E-04 2.375000000000E-07 6.300000000000E+01
     4.186035152000E+04 1.569375000000E-03-1.250000000000E-08 3.276700000000E+04
     1.753440000000E+01 1.112000000000E-03-1.250000000000E-07 1.580000000000E+02
E11 2025 01 01 11 10 00-6.910105003044E-05-2.199129767178E-10-3.469446951954E-18
     1.180000000000E+02 1.618125000000E+02 2.639752813443E-09 5.701988938384E-01
     7.553026080132E-06 2.605862682685E-04-1.471489667892E-07 5.440607051849E+03
     2.994000000000E+05-1.862645149231E-09-1.775168223659E+00 3.166496753693E-08
     9.965803403714E-01 3.610000000000E+02 1.024093974653E-01-5.658449982869E-09
     3.075128091428E-10 5.170000000000E+02 2.347000000000E+03
     3.120000000000E+00 0.000000000000E+00-1.676380634308E-08-1.722946763039E-08
     3.002150000000E+05
E29 2025 01 01 11 00 00-5.844532279298E-05-3.069544618484E-12 0.000000000000E+00
     1.170000000000E+02-1.587187500000E+02 2.947622780320E-09-1.784099591618E+00
    -7.372349500656E-06 3.113765269518E-04 1.113675534725E-05 5.440610851288E+03
     2.988000000000E+05 3.725290298462E-08 3.157532597278E-01-3.725290298462E-09
     9.569311130505E-01 1.003125000000E+02 2.655918411697E+00-5.292006147583E-09
     3.121558596874E-10 5.170000000000E+02 2.347000000000E+03
     3.120000000000E+00 0.000000000000E+00-5.355104804039E-09-4.190951585770E-09
     3.002370000000E+05
S44 2025 01 01 11 24 48 8.423812687397E-07 0.000000000000E+00 3.002720000000E+05
     7.247858560000E+03 6.656250000000E-04 3.250000000000E-07 6.300000000000E+01
     4.151371008000E+04 4.491875000000E-03-6.250000000000E-08 3.276700000000E+04
    -1.330519600000E+03 1.014880000000E-01 3.500000000000E-06 6.000000000000E+01
E29 2025 01 01 11 00 00-5.844671977684E-05-3.069544618484E-12 0.000000000000E+00
     1.170000000000E+02-1.587187500000E+02 2.947622780320E-09-1.784099591618E+00
    -7.372349500656E-06 3.113765269518E-04 1.113675534725E-05 5.440610851288E+03
     2.988000000000E+05 3.725290298462E-08 3.157532597278E-01-3.725290298462E-09
     9.569311130505E-01 1.003125000000E+02 2.655918411697E+00-5.292006147583E-09
     3.121558596874E-10 2.580000000000E+02 2.347000000000E+03
     3.120000000000E+00 0.000000000000E+00-5.355104804039E-09 0.000000000000E+00
     3.002800000000E+05
E11 2025 01 01 11 10 00-6.910046795383E-05-2.198987658630E-10-3.469446951954E-18
     1.180000000000E+02 1.618125000000E+02 2.639752813443E-09 5.701988938384E-01
     7.553026080132E-06 2.605862682685E-04-1.471489667892E-07 5.440607051849E+03
     2.994000000000E+05-1.862645149231E-09-1.775168223659E+00 3.166496753693E-08
     9.965803403714E-01 3.610000000000E+02 1.024093974653E-01-5.658449982869E-09
     3.075128091428E-10 2.580000000000E+02 2.347000000000E+03
     3.120000000000E+00 0.000000000000E+00-1.676380634308E-08 0.000000000000E+00
     3.002900000000E+05
S23 2025 01 01 11 25 04 0.000000000000E+00 0.000000000000E+00 3.003080000000E+05
     3.866796400000E+04 0.000000000000E+00 0.000000000000E+00 6.300000000000E+01
     1.681330800000E+04 0.000000000000E+00 0.000000000000E+00 3.276700000000E+04
     0.000000000000E+00 0.000000000000E+00 0.000000000000E+00 5.700000000000E+01
S21 2025 01 01 11 25 04 0.000000000000E+00 0.000000000000E+00 3.003140000000E+05
     4.200468400000E+04 0.000000000000E+00 0.000000000000E+00 6.300000000000E+01
    -3.674932960000E+03 0.000000000000E+00 0.000000000000E+00 3.276700000000E+04
     0.000000000000E+00 0.000000000000E+00 0.000000000000E+00 9.900000000000E+01
